#dP2023 10 18  0  0  0.00000000      96 __u+U IGS20 FIT  IAC
## 2284 259200.00000000   900.00000000 60235 0.0000000000000
+  119   C06C07C08C09C10C11C12C13C14C16C19C20C21C22C23C24C25
+        C26C27C28C29C30C32C33C34C35C36C37C38C39C40C41C42C43
+        C44C45C46E02E03E04E05E07E08E09E10E11E12E13E14E15E19
+        E21E24E25E26E27E30E31E33E34E36G01G02G03G04G05G06G07
+        G08G09G10G11G12G13G14G15G16G17G18G19G20G21G22G23G24
+        G25G26G27G28G29G30G31G32J02J03J04R01R02R03R04R05R07
+        R08R09R11R12R13R14R15R16R17R18R19R20R21R22R24R25R26
++         7  7  8  7  7  7  7  7  7  7  6  7  6  6  6  6  6
++         6  6  6  6  6  6  5  6  6  6  6  7  6  6  6  6  6
++         6  6  6  4  4  4  4  5  5  4  4  4  4  4  5  4  4
++         4  4  4  4  5  5  4  4  4  4  4  4  4  3  3  4  4
++         4  3  4  4  4  3  4  4  4  4  4  4  3  4  4  4  4
++         4  4  4  4  3  4  4  4  9  9 10  8  7  7  7  7  7
++         7  6  7  7  8  7  6  7  7  7  8  8  7  7  7  8  9
%c M  cc GPS ccc cccc cccc cccc cccc ccccc ccccc ccccc ccccc
%c cc cc ccc ccc cccc cccc cccc cccc ccccc ccccc ccccc ccccc
%f  1.2500000  1.025000000  0.00000000000  0.000000000000000
%f  0.0000000  0.000000000  0.00000000000  0.000000000000000
%i    0    0    0    0      0      0      0      0         0
%i    0    0    0    0      0      0      0      0         0
/* INFORMATION & ANALYSIS CENTER (IAC)            FINAL DATA
/* S/V CLOCKS ARE ALIGNED TO GNSS TIME                      
/* G:C1WC2W R:C1PC2P E:C1XC5X C:C2IC6I J:C1CC2S             
/* PCV:IGS20_2280 OL/AL:FES2004  NONE     YN ORB:CoN CLK:CoN
*  2023 10 18 16  0  0.00000000
PC06  -4963.505080  40020.208621 -11742.270511     60.289485
PC07  -8804.839411  26099.033698  32014.760585   -178.139112
PC08 -20683.428909  30361.863667 -20910.764659    289.889349
PC09   -924.508813  41623.176107  -3821.957237     25.485658
PC10    991.406737  28460.101543  31524.041552     14.562767
PC11  16985.551584   5715.873322 -21323.920237    210.125977
PC12  14056.439253  22689.444911  -8129.181225    892.673906
PC13 -14256.381629  30932.824608 -24906.447199    369.485467
PC14  27722.496872   2488.484003   2365.304747    611.354779
PC16  -8074.213883  37652.956208 -16556.087528   -131.910118
PC19 -25213.649329   3944.431895 -11257.562271   -972.378640
PC20 -26322.307093  -7576.762946   5274.931305    192.896739
PC21  11550.508774  15552.100275 -20087.738586   -969.306902
PC22  -9512.034815  13865.726845 -22279.630108   -261.298899
PC23  15060.158682 -23189.545444  -3727.421394   -841.617671
PC24  15538.059022   6305.326006  22290.869521    506.881510
PC25  21216.336657 -13142.194264  12453.398944    235.680380
PC26   1606.035917  20415.513969  18957.558483   -193.506201
PC27  -9806.000952 -26129.149628   -181.447139    215.279603
PC28   2475.415698 -23278.258661 -15177.093249    162.041963
PC29 -14959.836169   5736.753507  22845.976635    189.428676
PC30 -17975.718129 -14966.469116  15226.902825     -6.716767
PC32 -11512.602674 -15495.712167  20155.159646   -530.295724
PC33  25261.416291  -4045.776225  11153.459727   -953.037485
PC34  18175.699960  13575.408722 -16249.462778    283.866679
PC35  -1616.668204  23393.117335  15098.221143    522.535964
PC36 -21543.396006  11944.979108 -13103.439248   -174.077024
PC37   -502.898527 -20811.235262 -18560.118940   -857.328323
PC38 -25444.040716  31211.540001 -12785.342693    111.963797
PC39  -9273.620313  35008.181978 -21356.490494     -5.282168
PC40 -12970.054906  19624.226963  35005.016441    -40.591113
PC41  10305.340542 -13694.742992  22068.026585   -872.640489
PC42  25775.136099   8379.278968  -6656.862226   -518.964980
PC43  15458.519250  -4796.407417 -22737.862109     44.509445
PC44  10688.394339  25761.226082    335.010214    265.522085
PC45 -14766.164283  23306.908151   4280.934876    -37.338027
PC46 -16223.827501  -5023.256741 -22152.424814    -92.823060
PE02  -8745.157220 -14625.075590 -24203.829032     71.192284
PE03 -16787.044921 -22781.760275   8656.073211    -66.055411
PE04  24890.965456  12642.202507   9834.420824   -237.163656
PE05   1035.327438 -19683.640408  22078.635782     28.661307
PE07 -18636.592716   4669.593871 -22518.673144    -82.813623
PE08 -24840.305723 -13048.022309  -9423.668470   -163.326090
PE09  18649.542458  -4441.044569  22549.731336   -195.898282
PE10  16629.222830  -4449.421744 -24081.188984   -572.109247
PE11  15867.806816 -15954.043647 -19240.110134   3106.076869
PE12  14950.457016   6586.218484 -24683.907902   -741.560390
PE13 -15936.163055  15272.200804  19729.043310    -19.660120
PE14  22124.024243  -4364.686346 -22255.247694    372.252803
PE15 -14744.378125  -7082.337971  24676.486922    -62.218510
PE19  14820.863723  23182.134381 -10907.671727  -1399.132818
PE21 -12131.169612  18408.744321  19757.635406   -559.163444
PE24  27182.865390 -11270.975421  -3090.218735   -382.589460
PE25  12508.935794 -18373.622367 -19534.738456     -3.431169
PE26  -7428.751997  28540.086204   2623.700407    254.934662
PE27 -26969.272544  11672.031162   3610.338632   -177.671705
PE30 -25570.767492  -2258.482491 -14757.126745   -589.950428
PE31  25740.594874   1881.808371  14499.724780     -7.947834
PE33   4537.285306  25346.043750 -14611.076844      0.571833
PE34  -4986.798937 -24950.443707  15107.583304    -73.073053
PE36   7788.830897 -28362.503458  -3312.438203   -131.658335
PG01 -13734.340363  16865.798793  14657.865741    163.603207
PG02 -14929.187688  10785.456324  19574.704804   -540.451478
PG03 -22190.383187  12509.656488  -7463.213432    -71.191304
PG04 -12481.440607   8920.842042 -21682.003644    188.006132
PG05  25318.236544  -4471.127771  -7044.264817   -146.985019
PG06   7202.944334  19018.908554 -16967.100527    527.728957
PG07  -5004.914927  25815.149555    604.100397     37.042384
PG08 -19524.817793    257.371483  18109.528312   -147.752498
PG09  -2677.440598  16742.818983 -20520.386934    -28.839985
PG10  -7186.516438 -13210.351047  22098.954772    -57.843893
PG11  13668.018139   6936.016763 -21677.160863   -420.805274
PG12  24045.410381  -9951.221045  -5391.835042   -437.259818
PG13  20572.204615  10157.754088  13363.726984    585.426678
PG14   3078.379405  15241.410416  21550.014775    217.660826
PG15  18876.789895  -3475.968844  17966.978964     88.339477
PG16 -24283.493651  -2398.084644 -11338.112010   -437.079244
PG17  10513.241343  21716.674106  11399.740004    723.807135
PG18   4504.482655 -25992.302531   2070.434346   -452.651637
PG19  16612.092778  20806.035917   2370.429117    386.684016
PG20  20151.563191   2943.838029 -16905.861065    406.179143
PG21 -15463.468401   6264.756922  20969.751498    146.473303
PG22   9907.778756  12960.189696  21363.411387    100.542071
PG23   6945.013003 -16551.866697  19523.198339     84.619331
PG24  14572.973009 -12744.295470  17609.552397   -349.292677
PG25  14104.652256 -16495.500323 -15445.065068    473.313589
PG26 -17861.505617  -7448.386894 -18466.986003    222.431023
PG27 -22338.533146 -11617.319177   8832.355384    -57.015918
PG28  -7237.649173 -20514.002269 -15264.885879    -27.898069
PG29   3960.520978 -16180.957986 -20705.878134   -610.111741
PG30   2149.457805  24486.123950   9839.666647   -477.358110
PG31 -12120.294314 -11932.910028 -20491.413108   -224.795699
PG32 -15100.504996 -20588.143768   7873.975024   -574.361877
PJ02 -30583.241907  26094.624527  17908.988052     -5.916849
PJ03 -27489.732917  25841.468996  23929.329032     -5.456585
PJ04 -30090.056503  19860.649654 -16753.283425     71.317159
PR01   3976.110774 -10260.550882  23006.608845     67.937401
PR02 -14244.654098 -13275.748696  16556.903891    -22.380838
PR03 -24055.706512  -8573.683075    578.791062     87.317213
PR04 -20327.447221    399.913731 -15396.278977    207.375099
PR05  -5764.243719   9304.959423 -23037.243659    120.825864
PR07  24137.209038   8147.569540    398.543498     67.133590
PR08  20175.544171   -801.084385  15613.860235    -72.984267
PR09   1728.360322  13106.778000  21819.096979    148.335047
PR11  20364.911738 -12627.844597   8780.008706   -200.805385
PR12  13784.143955 -18764.721033 -10375.098817     32.481718
PR13    619.203827 -14237.140923 -21167.271653    -40.332705
PR14 -15143.825082    181.149959 -20506.652594     25.426897
PR15 -20482.563037  13267.819897  -7394.649939     85.275697
PR16 -13871.783879  18811.487160  10187.268600     19.768672
PR17 -11317.764835 -11511.536895  19744.970175     26.900728
PR18  -9388.703624   6175.671763  22914.272936    107.480554
PR19  -4064.687959  19853.110671  15504.671709   -251.357250
PR20   5591.710226  24443.507451  -4581.934685   -102.025129
PR21  11211.823043  10879.636664 -20170.853714    -46.519929
PR22   9690.964567  -7062.415126 -22484.986860     89.276870
PR24  -6885.755260 -23999.619059   5183.085259    -28.696444
PR25  11061.191480  12038.421353 -19582.019909     -5.488325
PR26  20526.037444   -578.390230  15159.139789    -20.196484
EOF
